[{"OBJECT_NAME":"STARLINK-30154","OBJECT_ID":"2023-113A","EPOCH":"2025-10-04T23:35:53.681280","MEAN_MOTION":15.02541423,"ECCENTRICITY":0.000112,"INCLINATION":43.0024,"RA_OF_ASC_NODE":143.7549,"ARG_OF_PERICENTER":275.418,"MEAN_ANOMALY":84.6534,"EPHEMERIS_TYPE":0,"CLASSIFICATION_TYPE":"U","NORAD_CAT_ID":57495,"ELEMENT_SET_NO":999,"REV_AT_EPOCH":12007,"BSTAR":0.00013136,"MEAN_MOTION_DOT":1.572e-5,"MEAN_MOTION_DDOT":0},{"OBJECT_NAME":"STARLINK-30145","OBJECT_ID":"2023-113B","EPOCH":"2025-10-05T00:47:39.192864","MEAN_MOTION":15.02538189,"ECCENTRICITY":0.000134,"INCLINATION":43.0029,"RA_OF_ASC_NODE":143.2827,"ARG_OF_PERICENTER":268.204,"MEAN_ANOMALY":91.8648,"EPHEMERIS_TYPE":0,"CLASSIFICATION_TYPE":"U","NORAD_CAT_ID":57496,"ELEMENT_SET_NO":999,"REV_AT_EPOCH":12013,"BSTAR":7.1229e-5,"MEAN_MOTION_DOT":7.59e-6,"MEAN_MOTION_DDOT":0},{"OBJECT_NAME":"STARLINK-30226","OBJECT_ID":"2023-113C","EPOCH":"2025-10-04T23:07:08.186016","MEAN_MOTION":15.02538593,"ECCENTRICITY":0.0001274,"INCLINATION":43.0026,"RA_OF_ASC_NODE":143.6297,"ARG_OF_PERICENTER":270.0186,"MEAN_ANOMALY":90.051,"EPHEMERIS_TYPE":0,"CLASSIFICATION_TYPE":"U","NORAD_CAT_ID":57497,"ELEMENT_SET_NO":999,"REV_AT_EPOCH":12013,"BSTAR":8.5038e-5,"MEAN_MOTION_DOT":9.45e-6,"MEAN_MOTION_DDOT":0},{"OBJECT_NAME":"STARLINK-30203","OBJECT_ID":"2023-113D","EPOCH":"2025-10-05T00:28:28.523712","MEAN_MOTION":15.02540689,"ECCENTRICITY":0.0001093,"INCLINATION":43.0027,"RA_OF_ASC_NODE":143.1859,"ARG_OF_PERICENTER":264.5479,"MEAN_ANOMALY":95.5239,"EPHEMERIS_TYPE":0,"CLASSIFICATION_TYPE":"U","NORAD_CAT_ID":57498,"ELEMENT_SET_NO":999,"REV_AT_EPOCH":12026,"BSTAR":-1.632e-5,"MEAN_MOTION_DOT":-4.24e-6,"MEAN_MOTION_DDOT":0},{"OBJECT_NAME":"STARLINK-30169","OBJECT_ID":"2023-113E","EPOCH":"2025-10-04T22:00:36.091296","MEAN_MOTION":15.02536308,"ECCENTRICITY":0.0001377,"INCLINATION":43.0051,"RA_OF_ASC_NODE":131.4127,"ARG_OF_PERICENTER":270.7525,"MEAN_ANOMALY":89.316,"EPHEMERIS_TYPE":0,"CLASSIFICATION_TYPE":"U","NORAD_CAT_ID":57499,"ELEMENT_SET_NO":999,"REV_AT_EPOCH":12021,"BSTAR":4.4405e-5,"MEAN_MOTION_DOT":3.96e-6,"MEAN_MOTION_DDOT":0},{"OBJECT_NAME":"STARLINK-30164","OBJECT_ID":"2023-113F","EPOCH":"2025-10-04T22:38:21.780960","MEAN_MOTION":15.02540322,"ECCENTRICITY":0.0001416,"INCLINATION":43.0038,"RA_OF_ASC_NODE":143.466,"ARG_OF_PERICENTER":263.9964,"MEAN_ANOMALY":96.0717,"EPHEMERIS_TYPE":0,"CLASSIFICATION_TYPE":"U","NORAD_CAT_ID":57500,"ELEMENT_SET_NO":999,"REV_AT_EPOCH":12023,"BSTAR":-8.3564e-5,"MEAN_MOTION_DOT":-1.332e-5,"MEAN_MOTION_DDOT":0},{"OBJECT_NAME":"STARLINK-30072","OBJECT_ID":"2023-113G","EPOCH":"2025-10-04T22:28:45.778080","MEAN_MOTION":15.0253978,"ECCENTRICITY":0.0001169,"INCLINATION":43.0042,"RA_OF_ASC_NODE":143.4123,"ARG_OF_PERICENTER":279.8465,"MEAN_ANOMALY":80.2246,"EPHEMERIS_TYPE":0,"CLASSIFICATION_TYPE":"U","NORAD_CAT_ID":57501,"ELEMENT_SET_NO":999,"REV_AT_EPOCH":12012,"BSTAR":0.0002146,"MEAN_MOTION_DOT":2.697e-5,"MEAN_MOTION_DDOT":0},{"OBJECT_NAME":"STARLINK-30228","OBJECT_ID":"2023-113H","EPOCH":"2025-10-04T21:39:53.629056","MEAN_MOTION":15.33475492,"ECCENTRICITY":0.0015225,"INCLINATION":42.9897,"RA_OF_ASC_NODE":109.1385,"ARG_OF_PERICENTER":275.4016,"MEAN_ANOMALY":84.5101,"EPHEMERIS_TYPE":0,"CLASSIFICATION_TYPE":"U","NORAD_CAT_ID":57502,"ELEMENT_SET_NO":999,"REV_AT_EPOCH":12052,"BSTAR":0.0025944,"MEAN_MOTION_DOT":0.0008676,"MEAN_MOTION_DDOT":0},{"OBJECT_NAME":"STARLINK-30230","OBJECT_ID":"2023-113J","EPOCH":"2025-10-05T00:18:53.118720","MEAN_MOTION":15.02529756,"ECCENTRICITY":0.0002099,"INCLINATION":43.0056,"RA_OF_ASC_NODE":143.1258,"ARG_OF_PERICENTER":266.666,"MEAN_ANOMALY":93.3942,"EPHEMERIS_TYPE":0,"CLASSIFICATION_TYPE":"U","NORAD_CAT_ID":57503,"ELEMENT_SET_NO":999,"REV_AT_EPOCH":12013,"BSTAR":0.00040216,"MEAN_MOTION_DOT":5.232e-5,"MEAN_MOTION_DDOT":0},{"OBJECT_NAME":"STARLINK-30213","OBJECT_ID":"2023-113K","EPOCH":"2025-10-04T23:59:52.338048","MEAN_MOTION":15.02537074,"ECCENTRICITY":0.0001148,"INCLINATION":43.0022,"RA_OF_ASC_NODE":143.8747,"ARG_OF_PERICENTER":269.2491,"MEAN_ANOMALY":90.822,"EPHEMERIS_TYPE":0,"CLASSIFICATION_TYPE":"U","NORAD_CAT_ID":57504,"ELEMENT_SET_NO":999,"REV_AT_EPOCH":12023,"BSTAR":7.8808e-5,"MEAN_MOTION_DOT":8.61e-6,"MEAN_MOTION_DDOT":0},{"OBJECT_NAME":"STARLINK-30227","OBJECT_ID":"2023-113L","EPOCH":"2025-10-04T23:21:53.100000","MEAN_MOTION":15.02537048,"ECCENTRICITY":0.0001268,"INCLINATION":43.0043,"RA_OF_ASC_NODE":130.6743,"ARG_OF_PERICENTER":267.8315,"MEAN_ANOMALY":92.2382,"EPHEMERIS_TYPE":0,"CLASSIFICATION_TYPE":"U","NORAD_CAT_ID":57505,"ELEMENT_SET_NO":999,"REV_AT_EPOCH":12038,"BSTAR":-1.569e-5,"MEAN_MOTION_DOT":-4.16e-6,"MEAN_MOTION_DDOT":0},{"OBJECT_NAME":"STARLINK-30212","OBJECT_ID":"2023-113M","EPOCH":"2025-10-04T23:55:04.727136","MEAN_MOTION":15.0252364,"ECCENTRICITY":0.0001005,"INCLINATION":43.0007,"RA_OF_ASC_NODE":143.8547,"ARG_OF_PERICENTER":299.8305,"MEAN_ANOMALY":60.2437,"EPHEMERIS_TYPE":0,"CLASSIFICATION_TYPE":"U","NORAD_CAT_ID":57506,"ELEMENT_SET_NO":999,"REV_AT_EPOCH":12007,"BSTAR":0.00015218,"MEAN_MOTION_DOT":1.852e-5,"MEAN_MOTION_DDOT":0},{"OBJECT_NAME":"STARLINK-30219","OBJECT_ID":"2023-113N","EPOCH":"2025-10-04T23:50:17.122272","MEAN_MOTION":15.02533523,"ECCENTRICITY":0.0001289,"INCLINATION":43.0027,"RA_OF_ASC_NODE":143.8429,"ARG_OF_PERICENTER":276.7996,"MEAN_ANOMALY":83.2699,"EPHEMERIS_TYPE":0,"CLASSIFICATION_TYPE":"U","NORAD_CAT_ID":57507,"ELEMENT_SET_NO":999,"REV_AT_EPOCH":12023,"BSTAR":0.00013579,"MEAN_MOTION_DOT":1.631e-5,"MEAN_MOTION_DDOT":0},{"OBJECT_NAME":"STARLINK-30074","OBJECT_ID":"2023-113P","EPOCH":"2025-10-05T00:09:17.682624","MEAN_MOTION":15.02535066,"ECCENTRICITY":0.0001301,"INCLINATION":43.0036,"RA_OF_ASC_NODE":143.0749,"ARG_OF_PERICENTER":263.3563,"MEAN_ANOMALY":96.7132,"EPHEMERIS_TYPE":0,"CLASSIFICATION_TYPE":"U","NORAD_CAT_ID":57508,"ELEMENT_SET_NO":999,"REV_AT_EPOCH":12003,"BSTAR":-2.9577e-6,"MEAN_MOTION_DOT":-2.44e-6,"MEAN_MOTION_DDOT":0},{"OBJECT_NAME":"STARLINK-30082","OBJECT_ID":"2023-113Q","EPOCH":"2025-10-04T23:31:06.187008","MEAN_MOTION":15.02539901,"ECCENTRICITY":0.000131,"INCLINATION":43.0022,"RA_OF_ASC_NODE":143.7447,"ARG_OF_PERICENTER":261.9297,"MEAN_ANOMALY":98.1397,"EPHEMERIS_TYPE":0,"CLASSIFICATION_TYPE":"U","NORAD_CAT_ID":57509,"ELEMENT_SET_NO":999,"REV_AT_EPOCH":12023,"BSTAR":-4.4537e-5,"MEAN_MOTION_DOT":-8.05e-6,"MEAN_MOTION_DDOT":0},{"OBJECT_NAME":"STARLINK-30153","OBJECT_ID":"2023-113R","EPOCH":"2025-10-04T23:26:18.125088","MEAN_MOTION":15.02555813,"ECCENTRICITY":0.0001241,"INCLINATION":43.0023,"RA_OF_ASC_NODE":143.7303,"ARG_OF_PERICENTER":263.0882,"MEAN_ANOMALY":96.9819,"EPHEMERIS_TYPE":0,"CLASSIFICATION_TYPE":"U","NORAD_CAT_ID":57510,"ELEMENT_SET_NO":999,"REV_AT_EPOCH":12012,"BSTAR":-0.00040903,"MEAN_MOTION_DOT":-5.727e-5,"MEAN_MOTION_DDOT":0},{"OBJECT_NAME":"STARLINK-30147","OBJECT_ID":"2023-113S","EPOCH":"2025-10-05T01:16:25.722336","MEAN_MOTION":15.0254653,"ECCENTRICITY":0.0001217,"INCLINATION":43.0034,"RA_OF_ASC_NODE":143.4323,"ARG_OF_PERICENTER":260.9926,"MEAN_ANOMALY":99.0778,"EPHEMERIS_TYPE":0,"CLASSIFICATION_TYPE":"U","NORAD_CAT_ID":57511,"ELEMENT_SET_NO":999,"REV_AT_EPOCH":12024,"BSTAR":-0.00025587,"MEAN_MOTION_DOT":-3.659e-5,"MEAN_MOTION_DDOT":0}]
