STARLINK-30154          
1 57495U 23113A   25277.98326020  .00001572  00000+0  13136-3 0  9994
2 57495  43.0024 143.7549 0001120 275.4180  84.6534 15.02541423120076
STARLINK-30145          
1 57496U 23113B   25278.03309251  .00000759  00000+0  71229-4 0  9993
2 57496  43.0029 143.2827 0001340 268.2040  91.8648 15.02538189120133
STARLINK-30226          
1 57497U 23113C   25277.96328919  .00000945  00000+0  85038-4 0  9997
2 57497  43.0026 143.6297 0001274 270.0186  90.0510 15.02538593120132
STARLINK-30203          
1 57498U 23113D   25278.01977458 -.00000424  00000+0 -16320-4 0  9995
2 57498  43.0027 143.1859 0001093 264.5479  95.5239 15.02540689120266
STARLINK-30169          
1 57499U 23113E   25277.91708439  .00000396  00000+0  44405-4 0  9996
2 57499  43.0051 131.4127 0001377 270.7525  89.3160 15.02536308120210
STARLINK-30164          
1 57500U 23113F   25277.94330765 -.00001332  00000+0 -83564-4 0  9997
2 57500  43.0038 143.4660 0001416 263.9964  96.0717 15.02540322120234
STARLINK-30072          
1 57501U 23113G   25277.93664095  .00002697  00000+0  21460-3 0  9992
2 57501  43.0042 143.4123 0001169 279.8465  80.2246 15.02539780120127
STARLINK-30228          
1 57502U 23113H   25277.90270404  .00086760  00000+0  25944-2 0  9990
2 57502  42.9897 109.1385 0015225 275.4016  84.5101 15.33475492120529
STARLINK-30230          
1 57503U 23113J   25278.01311480  .00005232  00000+0  40216-3 0  9999
2 57503  43.0056 143.1258 0002099 266.6660  93.3942 15.02529756120135
STARLINK-30213          
1 57504U 23113K   25277.99991132  .00000861  00000+0  78808-4 0  9996
2 57504  43.0022 143.8747 0001148 269.2491  90.8220 15.02537074120238
STARLINK-30227          
1 57505U 23113L   25277.97353125 -.00000416  00000+0 -15690-4 0  9997
2 57505  43.0043 130.6743 0001268 267.8315  92.2382 15.02537048120386
STARLINK-30212          
1 57506U 23113M   25277.99658249  .00001852  00000+0  15218-3 0  9993
2 57506  43.0007 143.8547 0001005 299.8305  60.2437 15.02523640120073
STARLINK-30219          
1 57507U 23113N   25277.99325373  .00001631  00000+0  13579-3 0  9996
2 57507  43.0027 143.8429 0001289 276.7996  83.2699 15.02533523120233
STARLINK-30074          
1 57508U 23113P   25278.00645466 -.00000244  00000+0 -29577-5 0  9996
2 57508  43.0036 143.0749 0001301 263.3563  96.7132 15.02535066120031
STARLINK-30082          
1 57509U 23113Q   25277.97993272 -.00000805  00000+0 -44537-4 0  9998
2 57509  43.0022 143.7447 0001310 261.9297  98.1397 15.02539901120230
STARLINK-30153          
1 57510U 23113R   25277.97659867 -.00005727  00000+0 -40903-3 0  9999
2 57510  43.0023 143.7303 0001241 263.0882  96.9819 15.02555813120123
STARLINK-30147          
1 57511U 23113S   25278.05307549 -.00003659  00000+0 -25587-3 0  9990
2 57511  43.0034 143.4323 0001217 260.9926  99.0778 15.02546530120240
